S No,HOSPITAL NAME,ADDRESS,CITY,STATE,PIN CODE
1,Abhaya Hospital,"17 Dr. M.H. Mari Gowda Road(Hosur Road), Opp. Park Area Wilson Garden Bangalore - 560027",Bengaluru,Karnataka,560027
2,Bangalore Hospital,"No.202. R.V. Road, South End Circle Jayanagar, Bangalore",Bengaluru,Karnataka,560004
3,Healthcare Global Enterprises (HCG),"44-45/2 2nd Cross, R R Mohan Roy Ext, Bengaluru, Bengaluru, Karnataka, 560027",Bengaluru,Karnataka,560027
4,Chaitanya Hospital,"80, P & T Colony, Rt Nagar, Bangalore-32",Bengaluru,Karnataka,560032
5,Chord Road Hospital,"#100 Bhimajyothi, Lic Colony, Woc Road, Basaveshawaranagar, Bangalore",Bengaluru,Karnataka,560079
6,Citi Hospital,25/91 Chord Road 11 Block Rajajinagar Bangalore,Bengaluru,Karnataka,560010
7,Hcg Koramangala,"#88, 17th ”A” Main, 2nd Cross, 5th Block, Koramangala",Bengaluru,Karnataka,560095
8,Devi Super Speciality Eye Hospital Private Limited,"#434, 18th Main, 80 Feet Road, 6th Block, Koramangala Bus Depot, Koramangala.",Bengaluru,Karnataka,560095
9,D G Hospital,"No. 274/275, M.K. Puttalingaiah Road, Padmanabhanagar",Bengaluru,Karnataka,560070
10,Dr Zamindars Microsurgical Eye Centre,"# 1013, 3rd Cross, 1st Block, Hrbr Layout, Kalyan Nagar",Bengaluru,Karnataka,560033
11,Gayathri Hospital Pvt Ltd,# 91 Magadi Chord Road Vijayanagar,Bengaluru,Karnataka,560040
12,Hosmat Hospital,"45 Magrath Road Off Richmond Road Bangalore, Off Richmond Road",Bengaluru,Karnataka,560001
13,Karthik Netralaya Institute Of Ophthalmology Pvt Ltd,"89 7th Cross, Nr Colony Ashok Nagar, Nr Colony, Ashok Nagar",Bengaluru,Karnataka,560050
14,Koshys Hospital,"Ramamurthy Nagar Extn, Raghavendra Nagar, Tambuchetty Palya Main Road",Bengaluru,Karnataka,560016
15,M S Ramaiah Hospitals,"M S Ramaiah Memorial Hospital, M.S.R. Nagar, Msr It Post, Bangalore",Bengaluru,Karnataka,560054
16,Mallya Hospital,No 2 Vittal Mallya Road,Bengaluru,Karnataka,560001
17,Manipal Hospital,"#98 Rustom Bagh, Hal Airport Road",Bengaluru,Karnataka,560017
18,Manipal North Side Hospital,"# 71 11th Main Road, Opp To Railway Station, Malleswaram, Bangalore",Bengaluru,Karnataka,560003
19,Manjushree Nursing Home Pvt Ltd,"No.22/70, St. Johns Road",Bengaluru,Karnataka,560042
20,Narayana Nethralaya,"#121/C, Chord Road, Rajajinagar, 1st R Block, (Near Mysore Soap Factory) Bangalore",Bengaluru,Karnataka,560010
21,Narayana Health,"Hosur Road Anekal Taluk, No. 258 / A Bommasandra Industrial Area Anekal Taluk Bangalore - 562158, Hosur Road, Anekal Taluk",Bengaluru,Karnataka,562158
22,Nu Hospitals Pvt Ltd,"C.A.6, 15th Main, 11th Cross, Padmanabhanagar, Bangalore",Bengaluru,Karnataka,560070
23,P D Hinduja Sindhi Hospital,Sampangiramanagar,Bengaluru,Karnataka,560027
24,Panacea Hospitals Pvt Ltd,"# 334, 8th Main, Iii Stage, Iv Block, Basaveshwaranagar, Dr. Siddaiah Puranik Road, Bangalore",Bengaluru,Karnataka,560079
25,Prabha Eye Clinic And Research Centre,"# 504, 40th Cross, 8th Block, Jayanagar, Bangalore",Bengaluru,Karnataka,560070
26,Pristine Hospital And Research Centre Pvt Ltd,"#877 Modi Hospital Road West Of Chord Road, Rajajinagar",Bengaluru,Karnataka,560086
27,Sagar Hospitals,"# 44 / 54 30th Cross Tilaknagar, Jayanagar Extn Bangalore",Bengaluru,Karnataka,560041
28,Sarojini Hospital,39/2 Tumkur Road 8th Mile Circle T Dasarahalli Bangalore,Bengaluru,Karnataka,560057
29,Shaker Nursing Home,"No.260, Sampige Road, Near 17th Cross, Malleshwaram",Bengaluru,Karnataka,560003
30,Shirdi Sai Hospital Pvt Ltd,"No. 519, 2nd Main, Nethravathi St, Devasandra, New Bel Road",Bengaluru,Karnataka,560054
31,St Marthas Hospital,"Nrupatunga Road, Bangalore",Bengaluru,Karnataka,560001
32,Sudharsana Nethralaya,"452, R S Plaza 1st Floor(Above Kids Kingdom), Between 6th & 7th Cross, Sampige Road, Malleswaram",Bengaluru,Karnataka,560003
33,Sunayana Eye Hospital,"# 1156, 26th Main, 4th T Block, Jayanagar",Bengaluru,Karnataka,560041
34,Sunetra Eye Hospital,"No. 519/34, 10th Main B.S.K. I Stage, Bangalore",Bengaluru,Karnataka,560050
35,Dr Solanki Eye Hospital Pvt Ltd,"# 191/1, 2nd Cross, Link Road Malleswaram. Bangalore-03",Bengaluru,Karnataka,560003
36,Trinity Hospital And Heart Foundation,"Near Rv Teacher College Circle, Basavanagudi, Basavanagudi",Bengaluru,Karnataka,560004
37,Vijaya Nethralaya,"#5, 20th Cross, Malgala Underpass, Ring Road, Nagarbhavi 2nd Stage.",Bengaluru,Karnataka,560091
38,Vinayaka Hospital,# 110 Ist Main 80 Ft. Road S.B.M Colony B.S.K. I St Stage Hanumanthanagar,Bengaluru,Karnataka,560050
39,Vittala International Institute Of Ophthalmology,"No 1 2nd Cross, 2nd Main, Bsk 3rd Stage, 2 Main, Bsk 3 Stg",Bengaluru,Karnataka,560085
40,K K Hospital,"9a1, 9a2, Opp M.E.C School, A Sector, Yelahanka New Town",Bengaluru,Karnataka,560064
41,Nayak Hospital,"3367, 5th Cross, Gayathrinagar",Bengaluru,Karnataka,560021
42,Shekhar Hospital,"(A Unit Of Shekhar Nursing Home) No. 942/45, 28th Main, 9th Block, Jayanagar, Bangalore",Bengaluru,Karnataka,560069
43,Shreya Hospital,"73, 3rd Main, 6th Cross, Behind Icici Atm, Kengeri Satellite Town, Bangalore",Bengaluru,Karnataka,560060
44,Mediscope Hospital Pvt Ltd,"#11 , Pillanna Garden , Iii Stage",Bengaluru,Karnataka,560045
45,Columbia Asia Medical Center,"Hebbal Kirloskar Business Park Bellary Road, Hebbal, Bangalore",Bengaluru,Karnataka,560024
46,Shekhar Hospital,"No.81, Bull Temple Road",Bengaluru,Karnataka,560019
47,Udhbhava Hospital,"No. 114, 100 Feet Ring Road, Banashankari 3rd Stage, Bangalore - 560085",Bengaluru,Karnataka,560085
48,Lakshmi Hospital,"402, 2nd Cross, Judges Colony Ganganagar, 402, 2nd Cross, Judges Colony Ganganagar, Bangalore - 560032",Bengaluru,Karnataka,560032
49,Prasad Eye Hospital,"No. 11, Krinshan Nagar Indistrial Layout, D.R.C. Post, Near Christ College, Hosur Main Road, Bangalore - 560 029.",Bengaluru,Karnataka,560029
50,Neha Prakash Hospital,"Neha Prakash Hospital 8, 6th Main Road, 5th Phase, Yelahanka New Town, Bangalore - 560 064",Bengaluru,Karnataka,560064
51,Sparsh Hospital,"29/P2, The Health City, Hosur Road, Bommasandra, Bangalore - 560099",Bengaluru,Karnataka,560099
52,Sri Jayadeva Institute Of Cardiovascular Sciences And Research,"Jayanagar 9th Block, Bannerghatta Road, Bangalore - 560069",Bengaluru,Karnataka,560069
53,Shushrusha Hospital,"B B Road Yelahanka, Bangaloer 560064",Bengaluru,Karnataka,560064
54,B W Lions Superspeciality Eye Hospital,"#5, Lions Eye Hospial Road (Off. J.C Road ), Bangalore 560002",Bengaluru,Karnataka,560002
55,Gangothri Hospital,"# 27, Kuvempunagar, 100ft Ring Road, Bangalore",Bengaluru,Karnataka,560076
56,Sri Lakshmi Hospital,"5, 6 & 7, Nagappa Reddy Layout,Kaggadsapura, C V Ramannagar Post",Bengaluru,Karnataka,560093
57,Sanjeevini Hospital,"# 760, Last Bus Stop, Mahalakshmi Layout, Bangalore",Bengaluru,Karnataka,560086
58,Apollo Hospital,"# 154/11, Opp. Iimb., Bannergahtta Road, Bilekahalli",Bengaluru,Karnataka,560076
59,Suguna Hospital (No Cashless for Ophthalmology Procedures),"# 1/A, 87, Dr. Raj Kumar Road, 4th N Block, Rajajinagar",Bengaluru,Karnataka,560010
60,Sukruthi Eye Care Microsurgical Centre,"148, Vyalikaual, Malleswaram 11th Cross, Bangalore",Bengaluru,Karnataka,560003
61,Vinayaka Nethralaya,"#66/A, 7th main road, N.S. Palya, BTM 2nd Stage, BTM Layout, Bangalore- 560076.",Bengaluru,Karnataka,560076
62,Deepa Hospital,"# 27, Old Madras Road, K R Puram",Bengaluru,Karnataka,560036
63,Sri Maruthi Hospital,"# 50 Kondappa Garden, Kogilu Road, Maruthi Nagar, Yelahanka, Bangalore",Bengaluru,Karnataka,560064
64,Cloudnine,"# 1533, 9th Main, 3rd Block, Jayanagar, Bangalore",Bengaluru,Karnataka,560011
65,Healthcare Global Enterprises (HCG),"Hcg Tower, No. 8, P Kalinga Rao Road, Sampangiramnagar",Bengaluru,Karnataka,560027
66,Lakshmi Maternity Home,"# 95 & 96, 15th Cross, Margosa Road, Malleswaram Bangalore",Bengaluru,Karnataka,560055
67,Jayashree Nursing Home,"# 4, 4th Cross, 4 Block, Kumara Park W, Bangalore",Bengaluru,Karnataka,560020
68,Abhaya Eye Hospital,"# 77, 100feet Ring Road, Bsk 3rd Stage",Bengaluru,Karnataka,560085
69,Chaya Hospital,"# 6 C 335, 4th C Main 6th Cross, Ombr Layout, Banasavadi",Bengaluru,Karnataka,560043
70,Kumar Nethralaya,"# 562, 41st Cross, 3rd Main, 2nd Block Rajajinagar.",Bengaluru,Karnataka,560010
71,Prerana Kims Kidney Stone Centre,"Kims Hospital Campus, V V Puram",Bengaluru,Karnataka,560004
72,Navashakti Nethralaya,"#1803, Outer Ring Road, HBR Layout, 5th Block, 1st Stage, near Nagawara Flyover",Bengaluru,Karnataka,560043
73,Sundar Hospital,"#01&02, Hennur Main Road, Lingaraja Puram",Bengaluru,Karnataka,560084
74,Hcg Msr Cancer Centre,"M S Ramaiah Memorial Hospital, M.S.R. Nagar, Msrit Post",Bengaluru,Karnataka,560054
75,Narayana Nethralaya 2,"#258/A, Hosur Road, Bommasandra",Bengaluru,Karnataka,560099
76,Pradnya Nethralaya,"#04, 6th Cross, Ganesh Block, Dinnur Road, Rt Nagar",Bengaluru,Karnataka,560032
77,Premier Sanjeevini Hospital,"# 6/2, Tumkur Road, T.Dasara Halli",Bengaluru,Karnataka,569957
78,Samprathi Eye Hospital And Squint Centre,"# 111, Railway Parallel Road, 7th Cross, Kumara Park East",Bengaluru,Karnataka,560020
79,Gurushree Hi-Tec Multi Speciality Hospital,"# 1558, Opp-Chandra Lay Out Bus Stand, Chandra Lay Out, Vijayanagar",Bengaluru,Karnataka,560040
80,T R Hospital,"# 1 To 7, Kothnur Dinne Main Road, J.P.Nagar 8th Phase",Bengaluru,Karnataka,560078
81,Basavangudi Medical Centre,"# 84/1, R.V.Road, Basavanagudi",Bengaluru,Karnataka,560004
82,Bgs Global Hospital,"Bgs Health And Education City, # 67, Uttara Halli Road, Kengeri",Bengaluru,Karnataka,560060
83,Raksha Multi Speciality Hospital,"# 141/ 142, 1st Main, Krishnananda Nagar, K.H.B.Colony, Police Quarters, Nandini Layout",Bengaluru,Karnataka,560072
84,Poornima Hospital,"No. 200/A, Hmt Layout, Rt Nagar",Bengaluru,Karnataka,560032
85,Mahanth Hospital,"# 8, 1-St Cross, N.G.R.Lay Out, Roopena Agrahara",Bengaluru,Karnataka,560068
86,Meridian Medical Centre,"# 14, Standage Road, Frazer Town",Bengaluru,Karnataka,560005
87,Prashantha Hospital,"# 90/D, Bommana Halli Circle",Bengaluru,Karnataka,560068
88,Akshaya Nethralaya,"#227/A, Bcehbcs Layout, Vidyagiri Layout, Nagarbhavi Circle",Bengaluru,Karnataka,560072
89,Divyadrishti Eye Hospital,"# 1129, R.P.C.Lay Out, Vijayanagar",Bengaluru,Karnataka,560040
90,Columbia Asia Referral Hospital,"#26/1, Dr.Rajkumar Road, Malleswaram West",Bengaluru,Karnataka,560055
91,Rangadore Memorial Hospital,"1st Cross, Shankarapuram, Basavanagudi",Bengaluru,Karnataka,560004
92,Dr Malathi Manipal Hospital,"45/1, 45th Cross, 9th Block, Jayanagar",Bengaluru,Karnataka,560069
93,Nethradhama Hospitals Pvt Ltd,"# 256/14, Kanakapura Mn Rd, Jayanagar",Bengaluru,Karnataka,560082
94,Nrr Hospital,"393a, Hesarghatta Main Road, Chikkasandra, Near Chikkabanavara Railway Station",Bengaluru,Karnataka,560090
95,Divine Speciality Hospital,"#110, 6th Main Iti Layout Benson Town Post, Bangalore-560046",Bengaluru,Karnataka,560046
96,Apple Hospital,"No.17/B, 18-20,'C' Sector, Yelhanka-Dodaballapura Main Road Opposite. Railway wheel factory , Yelahanka New Town",Bengaluru,Karnataka,560064
97,Sagar Hospitals,"Behind Dayanand Sagar Institutions, Shavige Malleshwara Hills, Kumarswamy Layout",Bengaluru,Karnataka,560078
98,Bharathy Hospital,"# 4, Prasanthnagar",Bengaluru,Karnataka,560007
99,Rangalakshmii Netralaya,"#2054 13th B Main, 3rd Phase , Mother Dairy Cross, Yelahanka New Town",Bengaluru,Karnataka,560106
100,Springleaf Health Care Pvt ltd,"#60/3, Konapana Agrahara, Opp. Infosys Convention Centre, Hosur Main Road, Electronics City.",Bengaluru,Karnataka,560100
101,V Care Hospital,"#29, Ist Main Road, 1st A Block, Deve Gowda Road, Rt Nagar, Bangalore",Bengaluru,Karnataka,560037
102,Bhagwan Mahaveer Jain Hospital,"17, Millers Road, Vasanthnagar",Bengaluru,Karnataka,560052
103,M S Ramaiah Narayana Hrudayalaya Heart Center,"6th Floor, M.S.Ramaiah Memoral Hospital Building, Msrit Post, New Bel Road",Bengaluru,Karnataka,560054
104,Fortis Hospitals Ltd,"# 14,  Cunnigham Road",Bengaluru,Karnataka,560052
105,Fortis Hospitals Ltd,"# 23, 80 Feet Road, Gurukrupa Layout, 2nd Stage Nagarbhavi, Near Nagarbhavi Circle",Bengaluru,Karnataka,560072
106,Fortis Hospitals Ltd,"No 154 / 9, Bilekahalli, Bannerghatta Road",Bengaluru,Karnataka,560076
107,Unity Lifeline Hospital,"#193.2nd Block, 2nd Stage, Nagarbhavi, Near Bda Complex, Nagarbhavi",Bengaluru,Karnataka,560072
108,Axon Specialty Hospital,"No 321, 6th Main Hal 2nd Stage Indira Nagar",Bengaluru,Karnataka,560038
109,Shanthi Hospital And Research Center Pvt Ltd,"No 307, 40th Cross 8th Block Jayanagar",Bengaluru,Karnataka,560082
110,Sankara Eye Hospital,"Varthur Road, Kundalahalli Gate",Bengaluru,Karnataka,560037
111,Padmashree Nuring And Maternity Home,"1108/30, 10TH MAIN",Bengaluru,Karnataka,560104
112,Vasan Eye Care Hospital,"# 897/C, 80 Feet Road, 6th Block Koramangala",Bengaluru,Karnataka,560034
113,Vasan Eye Care Hospital,"#389 New 46, 19th Main 1st Block Rajajinagar",Bengaluru,Karnataka,560010
114,Nethradhama Hospital Pvt Ltd - Rajajinagar.,"#30, 19th Main Road, 2nd Block Rajajinagar, Land Mark: Navarang Theatre",Bengaluru,Karnataka,560010
115,Nethradhama Hospital Pvt Ltd,"#66, Indiranagar Double Road, Hal 2nd Stage",Bengaluru,Karnataka,560038
116,Chanre Rheumatology And Immunology Centre And Research,"#149, 15th Main, 3rd Stage, 4th Block, Water Tank Road, Basaveshwaranagar 15th Main",Bengaluru,Karnataka,560079
117,Chinmaya Narayana Superspeciality Centre,Cmh Road Indiranagar 2nd Stage,Bengaluru,Karnataka,560038
118,South City Hospital,"53/1(45), Shalini Susheela Road, Lalbagh Upparahalli, Bangalore",Bengaluru,Karnataka,560004
119,Vagus Superspeciality Hospital,"18th Cross, 4th Main, Malleshwaram",Bengaluru,Karnataka,560003
120,Excelcare Hospital,"3/2, 27th Cross, Industrial Layout, Banshankari 2nd Stage",Bengaluru,Karnataka,560070
121,Live 100 Hospital,No 104/1 Hosur Main Road Singasandra,Bengaluru,Karnataka,560068
122,Motherhood,"No 324, Cmh Road, Indiranagar 1st Stage",Bengaluru,Karnataka,560038
123,Arunodaya Hospitals,"18, 23, Mallasandra Main Road, 4th & 5th Cross, Bagalagunte Hesaraghatta Road",Bengaluru,Karnataka,576005
124,Vasan Eye Care Hospital,"# 28 & 29, 7th Main Diagonal Road, Opp To Maiyas Hotel & Vinayak temple, Jayanagar 4th block , Bangalore-560011.",Bengaluru,Karnataka,560011
125,Vasan Eye Care Hospital,"# 205-4c, 4th Cross, 3rd Block, Hrbr Layout, Near Hennur Bus Depot, Banaswadi, Bangalore-560043",Bengaluru,Karnataka,560043
126,Dr Agarwals Eye Hospital,"Salarpuria Zest Building, No.16, Bannergatta Road, Opp to Shoppers Stop",Bengaluru,Karnataka,560078
127,Saptagiri Hospital,# 15 Chikkasandra Hesaraghatta Main Road,Bengaluru,Karnataka,560090
128,Vikram Hospital Bengaluru Private Limited,"# 71/1, Millers Road",Bengaluru,Karnataka,560052
129,Aayug Multi Specialty Hospital,"# 477 1st Main, B Block Aecs Layout, Kundanahalli",Bengaluru,Karnataka,560037
130,Sri Sai Ram Hospital,"# 6, J.C Industrial Area, Yelachenahalli Near Metro Kanakpura Main Road",Bengaluru,Karnataka,560062
131,Sparsh Hospital For Advanced Surgeries,"# 146, Infantry Road, Opp To Police Commissioners Office",Bengaluru,Karnataka,560001
132,Vasan Eye Care Hospital,"#25/5-D, Outer Ring Road, Doddanekundi, Marathalli",Bengaluru,Karnataka,560037
133,Jayashree Multispeciality Hospital (No cashless for Deluxe Wards and Suite),"No 25, 26, 27 1st Cross “B” Block Vishwapriyanagar Begur",Bengaluru,Karnataka,560068
134,Vasan Eye Care Hospital,"Seetha Complex, No.483, 16th Cross, 18th Main Rajarajeshwari Nagar",Bengaluru,Karnataka,560098
135,Dr Agarwals Eye Hospital,"#2557, Hig Sector B, 16th B Cross, 3rd Stage, Yelahanka New Town",Bengaluru,Karnataka,560064
136,Cloudnine Hospital Pvt Ltd,"#115, Kodihalli, Old Airport Road",Bengaluru,Karnataka,560017
137,Narayana Netralaya Unit 3,"No 37, Castle Street Opp Sacred Heart Church Ashoknagar",Bengaluru,Karnataka,560025
138,Manasa Trinity Heart Hospital,"# 4//38, 1St Main Road, 4Th Phase Industrial Area, Yelahanka New Town",Bengaluru,Karnataka,560064
139,Narayana Super Speciality Hospitals,No 24 9th Cross Margosa Road Malleshwaram,Bengaluru,Karnataka,560003
140,Dr Agarwals Eye Hospital,"#33, Coles Road, Frazer Town",Bengaluru,Karnataka,560005
141,Cloudnine,"# 47, 17th Cross, 11th Main , Malleshwaram",Bengaluru,Karnataka,560055
142,H K Hospital,"# 106/2, Bangalore Mysore Road, Near Rainbow Bridge, Kengeri",Bengaluru,Karnataka,560060
143,Panacea Hospital,"# 611, 612, Nagarabhavi Main Road, 2nd Satge Vinayaka Layout Nagarbhavi",Bengaluru,Karnataka,560072
144,Vijayashree Hospital,"#3 , Gottigere, Bennarghatta Main Road",Bengaluru,Karnataka,560083
145,Sri Shankara Cancer Hospital And Research Centre.,"1st Cross, Shankarapuram, Basavangudi",Bengaluru,Karnataka,560004
146,Apollo Cradle,"No. 58.5th Cross, 18th Main Dhanlakshmi Bank Building 6th Block, Kormangla",Bengaluru,Karnataka,560095
147,Vasan Eye Care Hospital,"Sri Murthy Complex, No.43, Garvey Bhav Palya Hongasandra Village Begur, Hobli, Hosur Main Road, Bommanahalli",Bengaluru,Karnataka,560068
148,Vasan Eye Care Hospital,"# Vijayalakshmi Arcade, No 533, Ganga Nagar, R T Nagar, Opp Bmtc Bus Stop",Bengaluru,Karnataka,560032
149,Vasan Eye Care Hospital,"# 1127/A, 7thsector, Near Bda Complex, Hsr Layout",Bengaluru,Karnataka,560102
150,Apollo Speciality Hospital,"No.21/2 (2) 14th Cross 3rd Block, Jayanagar",Bengaluru,Karnataka,560011
151,Apollo Cradle,"# 25, 46th Cross, 5th Block, Jayanagar",Bengaluru,Karnataka,560011
152,Nandana Health Care Servicespvt Ltd,"# 320/C 321/A, 1st Stage, 2nd Phase, West Of Chord Road, Manjunathnagar",Bengaluru,Karnataka,560010
153,Nelivigi Eye Hospital And Surgical Centre,"# 446/21, Above Vijaya Bank, Opp. Amba Bajaj Showroom, Diagonally Opp. To Bangalore Central Mall, Bellandur",Bengaluru,Karnataka,560103
154,Sailaja Superspeciality Eye Hospital,"21,22 1st Floor Above State Bank of Mysore Horamavu",Bengaluru,Karnataka,560043
155,Mazumdar Shaw Medical Centre Unit Of Narayana Health,Nh Health City No. 25a/A Bommasandya Industrial Area Hosur Road,Bengaluru,Karnataka,560099
156,Sri Ram Nethralaya,"No.2, 1st Floor (Adjoining Brdcc Bank), Opp Ganesha Temple, Near Old Police Station, K R Puram, K R Puram Bangalore",Bengaluru,Karnataka,560036
157,Chiraayu Hospital,"NO. 1 PEMMEGOUDA ROAD, MUNIREDDY PALYA",Bengaluru,Karnataka,560006
158,Belaku Eye Hospital,"#769&770, I CROSS RING ROAD KENGERI UPANAGARA",Bengaluru,Karnataka,560060
159,Narayana Hrudayalaya Pvt Ltd,"Basant Health Center Building, Site No. 1. Opp To Hsr Club, Hsr Layout",Bengaluru,Karnataka,560102
160,Brindhavan Areion Hospital,"#17, 4TH MAIN ROAD CHAMRAJPET",Bengaluru,Karnataka,560018
161,Aveksha Hospital,"#122, Varadarajaswamy Layout, Singapura Main Road, Near M.S Palya",Bengaluru,Karnataka,560097
162,Eye Foundation Ltd,"79/5, Outer Ring Road, Bellandur",Bengaluru,Karnataka,560103
163,Maruthi Hospital.,2374/26 Platinum Plaza Vijayanagar Club Road Bangalore,Bengaluru,Karnataka,560040
164,Vasan Eye Care Hospital,"Shivam Arcade, 41st Main Road, Kanakapura Main Road, Sarraki Gate",Bengaluru,Karnataka,560078
165,Kusuma Hospital,237/37 10th Main 50ft Road Nagendra Block Srinagar Bangalore,Bengaluru,Karnataka,560050
166,Nh Narayana Multispeciality Hospital,"Plotno.3&4, Sadaramangala Industrial Area White Field",Bengaluru,Karnataka,560048
167,Sakra World Hospital,"52/2 & 52/3 Devarabeesanahalli, Verthur Hoobli",Bengaluru,Karnataka,560103
168,Family Hospital Pvt Ltd,"No. 423/2, 60 Feet Road, 1st Main, 1st Stage, 1st Phase Behind Sbm Gokula",Bengaluru,Karnataka,560054
169,People Tree Hospitals,"#2, Tumkur Road, Goraguntepalya",Bengaluru,Karnataka,560022
170,Vasan Eye Care Hospital,Dps Tower No 40 1st Floor Above Icici Bank Ltd Banner Ghatta Road Arekere Bangalore,Bengaluru,Karnataka,560076
171,Meenakshi Hospital,"No. 979, 25th Main Road Hanumanthnagar",Bengaluru,Karnataka,560050
172,International Hospital Ltd,"#111&112, West Of Chord Road, Opp. 1st Block Rajajinagarjunction, Mahalakshmipuram",Bengaluru,Karnataka,560086
173,Athreya Hospital,"6/2 B, Chandapura, Opp. Suryanagara Phase 1",Bangalore Rural,Karnataka,560081
174,Bgs Gims Hospital,"# 67, Bgs Global Health & Education City, Uttra Halli Main Road, Kengeri",Bengaluru,Karnataka,560060
175,Punya Hospital India Pvt Ltd,"# 52, 53/10, 80 Feet Road, Mig Khb Colony, Basaveshwarnagar",Bengaluru,Karnataka,560079
176,Motherhood,"No 514/1-2-3, Kaikondara Village Opp. Total Mall, Sarjapur Road",Bengaluru,Karnataka,560104
177,Columbia Asia Hospital,"Sy. No. 10p & 12p, Ramagondanahalli Village, Varthur Hobli, Whitefield, Bangalore East Taluk",Bengaluru,Karnataka,560066
178,Navachethana Hospital,"17/A2 A-Sector , Opp Railwheel Factory Yelahanka , New Town Bangalore",Bengaluru,Karnataka,560064
179,Sankalp Nethralaya And Polyclinic,"85/1, 19th Main Hsr Layout Sector 1, Bangalore",Bengaluru,Karnataka,560025
180,Akshara Eye Hospital,"S.V. Arcade, Devarachikkana Halli Road",Bengaluru,Karnataka,560076
181,Nano Hospitals,"#79, DLF City, Near Arekere Sai Baba Temple, Narayanappanahalli, BTM 6th Stage, 2nd Block",Bengaluru,Karnataka,560076
182,Eskay Healthcare,"#274,3RD CROSS,BRINDAVAN LAYOUT,SHETTIHALLI",Bengaluru,Karnataka,560015
183,Sri Venkateshwara Nethralaya,120 S S COMPLEX 9TH MANI ROAD IDEAL HOMES TOWNSHIP RAJA RAJESHWARI NAGAR BANGALORE,Bengaluru,Karnataka,560098
184,Specialist Health System Pvt Ltd,"No. 216, 7th Main, 80 Feet Road, 1st Block, Hrbr Layout, Kalyannagar",Bengaluru,Karnataka,560043
185,Siddhi Eye Care,"229, 7TH CROSS, INDIRANAGAR, 1ST STAGE",Bengaluru,Karnataka,560038
186,Motherhood,"No. 2266/17/18, G Block, Sahakara Nagar, Bangalore",Bengaluru,Karnataka,560092
187,Chaya Super Speciality Hospital,"#6, 5th Main, B Channasandra Main Road, Kasturi Nagar,",Bengaluru,Karnataka,560043
188,Aster Cmi Hospital,"No. 43/2, Bellary Road, Nh 7, Sahakarnagar",Bengaluru,Karnataka,560092
189,Cloudnine Whitefield,"Cloudnine, 2nd Floor, Nagarjuna Sai Signet, Plot 11, Part (Ca) Of
Ediz Industrial Area, Sadaramangala Village, Kr Puram, Hobli, Whitefield Main Road",Bengaluru,Karnataka,560048
190,Dr Agarwals Eye Hospital,"No 30, 80 Ft Road, R.K Layout, Padmanabha Nagar",Bengaluru,Karnataka,560070
191,St Marthas Heart Center,"No-05, Nrupathunga Road, Opp.Rbi",Bengaluru,Karnataka,560001
192,Sparsh Superspeciality Hospital,"#4/1, Tumkur Road, Next To Rns Motors, Yeshwanthpur",Bengaluru,Karnataka,560022
193,Apollo Spectra Hospitals,"# 143, 5th Block, 1st Cross, Kormangala",Bengaluru,Karnataka,560034
194,Nu Hospital Pvt Ltd,"#4/1, West Of Chord Road, Rajajinagar, Next To Iskcon Temple",Bengaluru,Karnataka,560010
195,Apollo Cradle Brookefield,#101/209 ITPL MAIN ROAD KUNDALHALLI BROOKEFIELD,Bengaluru,Karnataka,560037
196,Premier Health Care,"NO. 164, 1ST CROSS,1ST MAIN ISRO LAYOUT",Bengaluru,Karnataka,560078
197,Prolife Multispeciality Hospital,#249/248/284/101 INTERNATIONAL AIRPORT ROAD BYATARAYANAPURA,Bengaluru,Karnataka,560092
198,Rainbow Childrens Medicare Pvt Ltd,"SURVEY NO 8/5, DODDANEKUNDI VILLAGE, MARATHAHALLI, KR PURAM, OUTER RING ROAD",Bengaluru,Karnataka,560037
199,"Apollo Hospitals, SheshadriPuram (A Unit Of Apollo Hospitals Enterprise Ltd)","New No 1, Old No 28, Platform Road, Sheshadripuram",Bengaluru,Karnataka,560020
200,Sathya Sai Orthopaedic And Multispeciality Hospital,"#20/1 BHATTARAHALLI, OLD MADRAS ROAD NEAR RTO",Bengaluru,Karnataka,560049
201,Comfort Multispeciality Hospital,"Srr Arcade, 23 & 24 Cross, Kaggadasapura Main Road, C V Raman Nagar",Bengaluru,Karnataka,560093
202,Vasavi Hospital,"#15, 70th cross, 14th main, 1st stage, kumaraswamy layout",Bengaluru,Karnataka,560078
203,Sagar Chandramma Hospitals,"No. 1, Vani Vilas Road, V. V Puram",Bengaluru,Karnataka,560004
204,Fortis La Femme,"#62 RICHMOND ROAD, SACRED HEART CHURCH ENTRY FROM MOTHER TERESA ROAD RICHMOND TOWN",Bengaluru,Karnataka,560025
205,Sri Maruthi Nethralaya,"18, 1ST FLOOR, ABOVE AIRTEL OFFICE,17TH CROSS, MRCR ROAD, BEHIND MARUTHI MANDIR, VIJAYANAGAR",Bengaluru,Karnataka,560040
206,Shekar Eye Hospital (A Unit Of Varasiddi Hospital),NO. 633 100 FT. RING ROAD J.P.NAGAR 3RD PHASE,Bengaluru,Karnataka,560078
207,Narayana Nethralaya Unit 4,"NO.63, NEXT TO ROYAL MEENAKSHI MALL, BANNERGHATTA ROAD, HULIMAVU,",Bengaluru,Karnataka,560076
208,Sun Orthopaedic Hospital,"# 24, BRINDAVAN NAGAR, 80FT MAIN ROAD, NEAR CHOWDESHWARI BUS STAND, MATHIKERE, BANGALORE",Bengaluru,Karnataka,560054
209,Bangalore Institute Of Gastroenterology,"No. 34, 100 feet road (ashoka pillar road), 2nd block, jayanagar, bnagalore",Bengaluru,Karnataka,560011
210,Krishna Nethralaya,"Mathura Arcade, above sbi,beside post offcice yelahanka new town",Bengaluru,Karnataka,560064
211,Medsol Hospital,"# 3 P(2), 60 feet Road, (Valgerahalli), Jnanabharathi Layout, 1st Block, Shirke Layout, Kengeri Satellite Town,",Bengaluru,Karnataka,560059
212,Svastha Hospital,"site no.3, narayanappa garden main road, whitefield, bangalore",Bengaluru,Karnataka,560066
213,Dharma Kidney Care,"No.909, 47th Cross, Near BSNL Compound,, 5th Block, Jaya Nagar, Bengaluru, Karnataka 560041",Bengaluru,Karnataka,560041
214,Rainbow Childrens Hospital & Birthright - Bg Road,"Road: No 178/1 & 178/2, Opposite Janardhan Towers, Bilekahalli, B G Road",Bengaluru,Karnataka,560076
215,Omega Multispeciality Hospital,"#1236, WARD NO. 4 B SECTOR HIG 1&2 PHASE yelahanka new
town",Bengaluru,Karnataka,560064
216,Sri Eye Care,"NO. 118, 80 FEET ROAD, 1ST STAGE, 1ST  BLOCK HBR LAYOUT, (OPP. SHIRDI SAI MANDIR & MINI ISKCON)",Bengaluru,Karnataka,560043
217,Rajashri Grandhim Speciality Hospital,"No.349, 5TH MAIN, 11TH CROSS, BILEKAHALLI AYAPPA TEMPLE ROAD,VIJAYA BANK LAYOUT",Bengaluru,Karnataka,560076
218,Procare Hospital,"914, 5th A Cross Road, HRBR Layout 1st Block, Kalyan Nagar, Bengaluru 560043",Bengaluru,Karnataka,560043
219,Janapriya Hospital,"no.2, 5th A cross, subbiahnapalya Banaswadi main road",Bengaluru,Karnataka,560033
220,The Heart Centre ( A Unit Of Frontier Healthcare India Pvt Ltd),OPP. TO FORTUNE HOTEL MILLERS TANK BUND ROAD VASANTHNAGAR,Bengaluru,Karnataka,560052
221,Bhagwan Mahaveer Jain Hospital,"NO 1.2, BANASHANKARI 3RD PHASE,AVALAHALLI, BDA 2ND LAYOUT,DEEPANJALI NAGARA",Bengaluru,Karnataka,560085
222,"SSNMC SUPER SPECIALITY HOSPITAL (Unit
of Dr Shettys New medical centre)","no. 8 ideal homes township,NEAR ICON INTERNATIONAL SCHOOL RR NAGAR, HBCS LAYOUT",Bengaluru,Karnataka,560098
223,Kids Clinic India Pvt Ltd (Cloudnine),"#1/79/4, BELLANDUR VILLAGE VARTHUR HOBLI",Bengaluru,Karnataka,560103
224,Kangaroo Care U/O Surabhi Health Care And Research,"#89, 17TH CROSS MC LAYOUT,  NEAR METRO STATION VIJAYANAGAR",Bengaluru,Karnataka,560040
225,Abhayahasta Multispeciality Hospital,"#347/247 2ND CROSS, KAGADASAPURA MAIN ROAD,CV RAMAN NAGAR",Bengaluru,Karnataka,560093
226,Naina Advanced Eye Centre,"#50, 100 feet road banaswadi bengaluru",Bengaluru,Karnataka,560043
227,Manipal Hospitals Pvt Ltd,"143, 212-2015 KR Puram Hobli, Off Hoodi Village, EPIP, Industrial Area, Whitefield, Bengaluru,",Bengaluru,Karnataka,560066
228,Swastik Eye Hospital,NO. 76 VANI VILAS ROAD BASAVANGUDI,Bengaluru,Karnataka,560004
229,Manjunatha Nethralaya,"NO.44, 1ST FLOOR BHUVANESHWARI NAGAR, T-
DASARAHALLI AMMAJI COMPLEX, HESARAGHATTA MAIN ROAD",Bengaluru,Karnataka,560057
230,Sachethana Eye Clinic,"#32, 9TH CROSS 1ST MAIN",Bengaluru,Karnataka,560079
231,Best Hospital,"Sy.No.76/1,# 413,hosur main road,chandapura,bangalore",Bengaluru,Karnataka,560099
232,Raghavendra People Tree Hospital,#13/4 T DASARAHALLI,Bengaluru,Karnataka,560057
233,Samruddhi Eye Hospital,"NO.2 NEAR FORTUNA VISTA APARTMENT KODIGEHALLI MAIN ROAD THINDLU,VIDYARANYA PURA POST",Bengaluru,Karnataka,560097
234,Pavan Hospital,"#110, JJ TOWERS GANDHI NAGAR",Bengaluru,Karnataka,560064
235,Cytecare Cancer Hospitals Pvt Ltd,"Near Banglore Cross ,Banglore hyderabad HWY Venkatala Yelamanka",Bengaluru,Karnataka,560064
236,People Tree Hospitals,"NO. 1, GRACE TOWN HENNUR RING ROAD KALYAN NAGAR JUNCTION",Bengaluru,Karnataka,560043
237,Kanva Sri Sai Hospital,"227, RAJIVGANDHI NAGAR",Bengaluru,Karnataka,560096
238,Medcare Hospital,"NO.12, S S TEMPLE STREET,VV PURAM",Bengaluru,Karnataka,560004
239,Dr. Agarwals  Eye Hospital,"No. 3275, 12TH MAIN ROAD",Bengaluru,Karnataka,560008
240,Dr. Agarwals  Eye Hospital,"No. 3, NARAYANAPPA CHAMBERS",Bengaluru,Karnataka,560066
241,Gleneagles Global Hospitals,"NO. 5/5,",Bengaluru,Karnataka,560025
242,Sreenagar Hospital,"855/856, RAMANJENEYA MAIN ROAD SRINAGAR",Bengaluru,Karnataka,560050
243,Digvijaya Hospital,"No 124 7th Block, Jaya Nagar",Bengaluru,Karnataka,560082
244,Tathagat Heart Care Centre,"NO.31/32 CRESENT ROAD  MALLIGE MEDICAL CENTRE PREMISES OPP. SUVARNA NEWS, SHIVANAND CIRCLE",Bengaluru,Karnataka,560001
245,Drishti Nethralaya,"#30/A, 11th Main Road, 50 Feet Road, Raghavendra block, Srinagar",Bengaluru,Karnataka,560050
246,THE LIFE PLUS HOSPITAL ( A UNIT OF ASHRITHA HEALTHCARE),"266/C INDIRANAGAR, 80 FEET ROAD, SIR CV RAMAN HOSPITAL ROAD, NEAR CMH HOSPITAL",Bengaluru,Karnataka,560075
247,Shekar Super Speciality Eye Centre,"No.704, 3rd Block, BEL Layout, Vidyaranyapura Main Road, Bengaluru",Bengaluru,Karnataka,560097
248,Bangalore Orthopaedic And Surgical Hospital,"NO. 426, 3RD CROSS, HRBR LAYOUT,KALYAN NAGAR",Bengaluru,Karnataka,560043
249,Pinnacle Hospital,"282/3, byatanarayanapura, near gaali anjaneya temple, Opp. canara bank, mysuru main road, bengaluru",Bengaluru,Karnataka,560026
250,Mtb Orthopaedic And Trauma Hospital,mahadevpura Opp. phoenix mall whitefield road bengaluru,Bengaluru,Karnataka,560048
251,Columbia Asia Hospital,"Survey No 46/2, Ward No 150, Ambalipura Sarjapur Road",Bengaluru,Karnataka,560102
252,Motherhood Hospital,"no. 5AC 914, 1st block kalyana nagar HRBR layout, outer ring road, banaswadi benagaluru",Bengaluru,Karnataka,560043
253,Aaxis Hospitals,"BELLATHUR VILLAGE, WHITEFIELD MAIN ROAD, KADUGODI, BANGALORE",Bengaluru,Karnataka,560067
254,Yashomati Hospitals Private Limited (A Unit Of Aayugs),"NO. 2371/3, HAL AIRPORT, VARTHUR ROAD, MUNNEKOLALA",Bengaluru,Karnataka,560037
255,Marigold Sugar Hospitals And Research Centre,"# 243, 3rd cross, 7th main road, MICO layout, BTM 2nd stage",Bengaluru,Karnataka,560078
256,Nuo Garden City Eye Hospital,NEAR HYPER BAZAAR,Bengaluru,Karnataka,560040
257,Shivashakti Multispeciacity Hospital.,"12/2/B, Kenchanapura cross, nagadevanahalli. kengeri hobli.bangalore- 560056",Bengaluru,Karnataka,695504
258,Astra Super Speciality Hospital,"21/7,vasanthapura main road, konanakunte cross,bengaluru",Bengaluru,Karnataka,560062
259,Motherhood - Banagirinagar,4/19 30th main road banashankari 3rd stage banagiri nagar,Bengaluru,Karnataka,560085
260,Ndr Hospital,"NO.4 B SECTOR, OPP. YELAHANKA NEW TOWN BUS STAND",Bengaluru,Karnataka,560064
261,Leelavatti Multispeciality Hospital,"#7.2ND MAIN ROAD, CHAMARAJPET BENGALORE",Bangalore Rural,Karnataka,560018
262,Lakshmi Eye Hospital,"NO. 290, 15TH CROSS OPP. KANTI SWEETS",Bengaluru,Karnataka,560064
263,Hbs Hospital,"No.58,Cockburn Road,Shivaji Nagar,Bengaluru",Bengaluru,Karnataka,560051
264,Prakriya Hospital,"Survey no 41, raja reddy layout, 8th mile, tumkur road, nagasandra post bangalore",Bangalore Rural,Karnataka,560073
265,Atreum Speciality Hospital,"916 D, 80 Feet Road Ideal Homes Townsship Rajarajeshwari nagar",Bengaluru,Karnataka,560098
266,Astha Eye Hospital,"#590, 6TH BLOCK 3RD PHASE BSK 3RD STAGE",Bengaluru,Karnataka,560085
267,Vijayanagar Hospital,"No. 46, 17th Cross, Mc Road, Viajayanagar",Bengaluru,Karnataka,560040
"The above list is dynamic, subject to change from time to time.
Please contact the TPA/Company for further details.",,,,,